{"fetched_at":"2026-07-15T06:35:32.501Z","source":"https://celestrak.org/NORAD/elements/gp.php?GROUP=oneweb&FORMAT=JSON","constellation":"oneweb","records":[{"OBJECT_NAME":"ONEWEB-0264","OBJECT_ID":"2021-060R","EPOCH":"2026-07-14T14:51:38.536128","CLASSIFICATION_TYPE":"U","MEAN_MOTION":13.16592916,"ECCENTRICITY":0.00019098,"INCLINATION":87.9073,"RA_OF_ASC_NODE":223.335,"ARG_OF_PERICENTER":97.8715,"MEAN_ANOMALY":262.2633,"EPHEMERIS_TYPE":0,"NORAD_CAT_ID":48982,"ELEMENT_SET_NO":999,"REV_AT_EPOCH":24320,"BSTAR":0.00023853497,"MEAN_MOTION_DOT":0.00000104,"MEAN_MOTION_DDOT":0},{"OBJECT_NAME":"ONEWEB-0266","OBJECT_ID":"2021-060T","EPOCH":"2026-07-14T13:32:59.450208","CLASSIFICATION_TYPE":"U","MEAN_MOTION":13.16595711,"ECCENTRICITY":0.0002122,"INCLINATION":87.9082,"RA_OF_ASC_NODE":223.3371,"ARG_OF_PERICENTER":91.7037,"MEAN_ANOMALY":268.4337,"EPHEMERIS_TYPE":0,"NORAD_CAT_ID":48984,"ELEMENT_SET_NO":999,"REV_AT_EPOCH":24318,"BSTAR":-0.000053014,"MEAN_MOTION_DOT":-7e-8,"MEAN_MOTION_DDOT":0},{"OBJECT_NAME":"ONEWEB-0267","OBJECT_ID":"2021-060U","EPOCH":"2026-07-14T13:48:58.000320","CLASSIFICATION_TYPE":"U","MEAN_MOTION":13.16593941,"ECCENTRICITY":0.0002035,"INCLINATION":87.9079,"RA_OF_ASC_NODE":223.332,"ARG_OF_PERICENTER":99.3719,"MEAN_ANOMALY":260.7642,"EPHEMERIS_TYPE":0,"NORAD_CAT_ID":48985,"ELEMENT_SET_NO":999,"REV_AT_EPOCH":24319,"BSTAR":0.000012479,"MEAN_MOTION_DOT":1.8e-7,"MEAN_MOTION_DDOT":0},{"OBJECT_NAME":"ONEWEB-0268","OBJECT_ID":"2021-060V","EPOCH":"2026-07-14T14:52:48.244512","CLASSIFICATION_TYPE":"U","MEAN_MOTION":13.16593473,"ECCENTRICITY":0.00019428,"INCLINATION":87.9081,"RA_OF_ASC_NODE":223.3319,"ARG_OF_PERICENTER":93.8307,"MEAN_ANOMALY":266.3046,"EPHEMERIS_TYPE":0,"NORAD_CAT_ID":48986,"ELEMENT_SET_NO":999,"REV_AT_EPOCH":24346,"BSTAR":0.00025829721,"MEAN_MOTION_DOT":0.00000112,"MEAN_MOTION_DDOT":0},{"OBJECT_NAME":"ONEWEB-0269","OBJECT_ID":"2021-060W","EPOCH":"2026-07-14T14:25:26.694624","CLASSIFICATION_TYPE":"U","MEAN_MOTION":13.16593445,"ECCENTRICITY":0.0001958,"INCLINATION":87.9071,"RA_OF_ASC_NODE":223.337,"ARG_OF_PERICENTER":88.2849,"MEAN_ANOMALY":271.8506,"EPHEMERIS_TYPE":0,"NORAD_CAT_ID":48987,"ELEMENT_SET_NO":999,"REV_AT_EPOCH":24323,"BSTAR":0.00033489,"MEAN_MOTION_DOT":0.00000141,"MEAN_MOTION_DDOT":0},{"OBJECT_NAME":"ONEWEB-0270","OBJECT_ID":"2021-060X","EPOCH":"2026-07-14T14:50:30.197184","CLASSIFICATION_TYPE":"U","MEAN_MOTION":13.16593835,"ECCENTRICITY":0.00022631,"INCLINATION":87.9087,"RA_OF_ASC_NODE":223.3343,"ARG_OF_PERICENTER":100.0539,"MEAN_ANOMALY":260.0848,"EPHEMERIS_TYPE":0,"NORAD_CAT_ID":48988,"ELEMENT_SET_NO":999,"REV_AT_EPOCH":24327,"BSTAR":0.00016812784,"MEAN_MOTION_DOT":7.7e-7,"MEAN_MOTION_DDOT":0},{"OBJECT_NAME":"ONEWEB-0271","OBJECT_ID":"2021-060Y","EPOCH":"2026-07-14T14:32:17.243232","CLASSIFICATION_TYPE":"U","MEAN_MOTION":13.16594174,"ECCENTRICITY":0.0002112,"INCLINATION":87.9079,"RA_OF_ASC_NODE":223.3264,"ARG_OF_PERICENTER":100.4418,"MEAN_ANOMALY":259.6951,"EPHEMERIS_TYPE":0,"NORAD_CAT_ID":48989,"ELEMENT_SET_NO":999,"REV_AT_EPOCH":24327,"BSTAR":0.00027449,"MEAN_MOTION_DOT":0.00000118,"MEAN_MOTION_DDOT":0},{"OBJECT_NAME":"ONEWEB-0272","OBJECT_ID":"2021-060Z","EPOCH":"2026-07-14T15:04:11.817120","CLASSIFICATION_TYPE":"U","MEAN_MOTION":13.16595897,"ECCENTRICITY":0.00018278,"INCLINATION":87.9075,"RA_OF_ASC_NODE":223.3325,"ARG_OF_PERICENTER":99.3535,"MEAN_ANOMALY":260.7803,"EPHEMERIS_TYPE":0,"NORAD_CAT_ID":48990,"ELEMENT_SET_NO":999,"REV_AT_EPOCH":24322,"BSTAR":-0.00002120381,"MEAN_MOTION_DOT":5e-8,"MEAN_MOTION_DDOT":0},{"OBJECT_NAME":"ONEWEB-0273","OBJECT_ID":"2021-060AA","EPOCH":"2026-07-14T13:46:40.886112","CLASSIFICATION_TYPE":"U","MEAN_MOTION":13.16594206,"ECCENTRICITY":0.0002141,"INCLINATION":87.9074,"RA_OF_ASC_NODE":223.3446,"ARG_OF_PERICENTER":97.3645,"MEAN_ANOMALY":262.7729,"EPHEMERIS_TYPE":0,"NORAD_CAT_ID":48991,"ELEMENT_SET_NO":999,"REV_AT_EPOCH":24319,"BSTAR":0.000043423,"MEAN_MOTION_DOT":2.9e-7,"MEAN_MOTION_DDOT":0},{"OBJECT_NAME":"ONEWEB-0274","OBJECT_ID":"2021-060AB","EPOCH":"2026-07-14T14:23:08.769120","CLASSIFICATION_TYPE":"U","MEAN_MOTION":13.16595536,"ECCENTRICITY":0.0001723,"INCLINATION":87.907,"RA_OF_ASC_NODE":223.3391,"ARG_OF_PERICENTER":94.8142,"MEAN_ANOMALY":265.3186,"EPHEMERIS_TYPE":0,"NORAD_CAT_ID":48992,"ELEMENT_SET_NO":999,"REV_AT_EPOCH":24323,"BSTAR":0.0003475,"MEAN_MOTION_DOT":0.00000146,"MEAN_MOTION_DDOT":0},{"OBJECT_NAME":"ONEWEB-0275","OBJECT_ID":"2021-060AC","EPOCH":"2026-07-14T14:07:11.291232","CLASSIFICATION_TYPE":"U","MEAN_MOTION":13.16595524,"ECCENTRICITY":0.0002005,"INCLINATION":87.9081,"RA_OF_ASC_NODE":223.3331,"ARG_OF_PERICENTER":96.045,"MEAN_ANOMALY":264.091,"EPHEMERIS_TYPE":0,"NORAD_CAT_ID":48993,"ELEMENT_SET_NO":999,"REV_AT_EPOCH":24316,"BSTAR":8.7427e-7,"MEAN_MOTION_DOT":1.3e-7,"MEAN_MOTION_DDOT":0},{"OBJECT_NAME":"ONEWEB-0276","OBJECT_ID":"2021-060AD","EPOCH":"2026-07-14T14:55:05.153088","CLASSIFICATION_TYPE":"U","MEAN_MOTION":13.16594096,"ECCENTRICITY":0.00018876,"INCLINATION":87.9081,"RA_OF_ASC_NODE":223.3254,"ARG_OF_PERICENTER":95.0455,"MEAN_ANOMALY":265.0891,"EPHEMERIS_TYPE":0,"NORAD_CAT_ID":48994,"ELEMENT_SET_NO":999,"REV_AT_EPOCH":24318,"BSTAR":0.00016847597,"MEAN_MOTION_DOT":7.7e-7,"MEAN_MOTION_DDOT":0},{"OBJECT_NAME":"ONEWEB-0277","OBJECT_ID":"2021-060AE","EPOCH":"2026-07-14T15:13:19.845408","CLASSIFICATION_TYPE":"U","MEAN_MOTION":13.16594908,"ECCENTRICITY":0.00021727,"INCLINATION":87.9077,"RA_OF_ASC_NODE":223.3299,"ARG_OF_PERICENTER":98.8406,"MEAN_ANOMALY":261.2971,"EPHEMERIS_TYPE":0,"NORAD_CAT_ID":48995,"ELEMENT_SET_NO":999,"REV_AT_EPOCH":24317,"BSTAR":-0.00016527608,"MEAN_MOTION_DOT":-5e-7,"MEAN_MOTION_DDOT":0},{"OBJECT_NAME":"ONEWEB-0278","OBJECT_ID":"2021-060AF","EPOCH":"2026-07-14T14:59:38.832000","CLASSIFICATION_TYPE":"U","MEAN_MOTION":13.16594117,"ECCENTRICITY":0.00022144,"INCLINATION":87.9081,"RA_OF_ASC_NODE":223.3243,"ARG_OF_PERICENTER":89.4144,"MEAN_ANOMALY":270.724,"EPHEMERIS_TYPE":0,"NORAD_CAT_ID":48996,"ELEMENT_SET_NO":999,"REV_AT_EPOCH":24330,"BSTAR":0.00003449517,"MEAN_MOTION_DOT":2.6e-7,"MEAN_MOTION_DDOT":0},{"OBJECT_NAME":"ONEWEB-0279","OBJECT_ID":"2021-060AG","EPOCH":"2026-07-14T15:11:02.775264","CLASSIFICATION_TYPE":"U","MEAN_MOTION":13.16593748,"ECCENTRICITY":0.00019917,"INCLINATION":87.9082,"RA_OF_ASC_NODE":223.3206,"ARG_OF_PERICENTER":100.8046,"MEAN_ANOMALY":259.3309,"EPHEMERIS_TYPE":0,"NORAD_CAT_ID":48997,"ELEMENT_SET_NO":999,"REV_AT_EPOCH":24323,"BSTAR":-0.00022690825,"MEAN_MOTION_DOT":-7.4e-7,"MEAN_MOTION_DDOT":0},{"OBJECT_NAME":"ONEWEB-0280","OBJECT_ID":"2021-060AH","EPOCH":"2026-07-14T13:43:15.465792","CLASSIFICATION_TYPE":"U","MEAN_MOTION":13.16596019,"ECCENTRICITY":0.0002404,"INCLINATION":87.9082,"RA_OF_ASC_NODE":223.3367,"ARG_OF_PERICENTER":95.0925,"MEAN_ANOMALY":265.048,"EPHEMERIS_TYPE":0,"NORAD_CAT_ID":48998,"ELEMENT_SET_NO":999,"REV_AT_EPOCH":24316,"BSTAR":0.00013809,"MEAN_MOTION_DOT":6.6e-7,"MEAN_MOTION_DDOT":0},{"OBJECT_NAME":"ONEWEB-0281","OBJECT_ID":"2021-060AJ","EPOCH":"2026-07-14T13:51:14.666976","CLASSIFICATION_TYPE":"U","MEAN_MOTION":13.16593755,"ECCENTRICITY":0.0002091,"INCLINATION":87.908,"RA_OF_ASC_NODE":223.3315,"ARG_OF_PERICENTER":92.2057,"MEAN_ANOMALY":267.9313,"EPHEMERIS_TYPE":0,"NORAD_CAT_ID":48999,"ELEMENT_SET_NO":999,"REV_AT_EPOCH":24323,"BSTAR":-0.000052001,"MEAN_MOTION_DOT":-7e-8,"MEAN_MOTION_DDOT":0},{"OBJECT_NAME":"ONEWEB-0282","OBJECT_ID":"2021-060AK","EPOCH":"2026-07-14T14:34:33.622176","CLASSIFICATION_TYPE":"U","MEAN_MOTION":13.1659519,"ECCENTRICITY":0.0002141,"INCLINATION":87.9077,"RA_OF_ASC_NODE":223.3332,"ARG_OF_PERICENTER":96.6698,"MEAN_ANOMALY":263.4677,"EPHEMERIS_TYPE":0,"NORAD_CAT_ID":49000,"ELEMENT_SET_NO":999,"REV_AT_EPOCH":24321,"BSTAR":0.00052606,"MEAN_MOTION_DOT":0.00000214,"MEAN_MOTION_DDOT":0},{"OBJECT_NAME":"ONEWEB-0283","OBJECT_ID":"2021-060AL","EPOCH":"2026-07-14T14:18:35.823744","CLASSIFICATION_TYPE":"U","MEAN_MOTION":13.16593631,"ECCENTRICITY":0.0001997,"INCLINATION":87.9075,"RA_OF_ASC_NODE":223.3347,"ARG_OF_PERICENTER":98.8061,"MEAN_ANOMALY":261.3296,"EPHEMERIS_TYPE":0,"NORAD_CAT_ID":49001,"ELEMENT_SET_NO":999,"REV_AT_EPOCH":24322,"BSTAR":0.00028413,"MEAN_MOTION_DOT":0.00000121,"MEAN_MOTION_DDOT":0},{"OBJECT_NAME":"ONEWEB-0284","OBJECT_ID":"2021-060AM","EPOCH":"2026-07-14T14:09:29.463840","CLASSIFICATION_TYPE":"U","MEAN_MOTION":13.16593858,"ECCENTRICITY":0.0002385,"INCLINATION":87.9078,"RA_OF_ASC_NODE":223.3299,"ARG_OF_PERICENTER":91.7518,"MEAN_ANOMALY":268.3886,"EPHEMERIS_TYPE":0,"NORAD_CAT_ID":49002,"ELEMENT_SET_NO":999,"REV_AT_EPOCH":24320,"BSTAR":0.000056144,"MEAN_MOTION_DOT":3.4e-7,"MEAN_MOTION_DDOT":0},{"OBJECT_NAME":"ONEWEB-0285","OBJECT_ID":"2021-075A","EPOCH":"2026-07-14T21:17:04.179552","CLASSIFICATION_TYPE":"U","MEAN_MOTION":13.12441244,"ECCENTRICITY":0.00017945,"INCLINATION":87.8969,"RA_OF_ASC_NODE":345.1548,"ARG_OF_PERICENTER":89.999,"MEAN_ANOMALY":270.1345,"EPHEMERIS_TYPE":0,"NORAD_CAT_ID":49075,"ELEMENT_SET_NO":999,"REV_AT_EPOCH":23884,"BSTAR":0.0012745646,"MEAN_MOTION_DOT":0.00000471,"MEAN_MOTION_DDOT":0},{"OBJECT_NAME":"ONEWEB-0286","OBJECT_ID":"2021-075B","EPOCH":"2026-07-14T22:41:01.412736","CLASSIFICATION_TYPE":"U","MEAN_MOTION":13.1244207,"ECCENTRICITY":0.00017583,"INCLINATION":87.896,"RA_OF_ASC_NODE":345.1574,"ARG_OF_PERICENTER":89.3734,"MEAN_ANOMALY":270.7596,"EPHEMERIS_TYPE":0,"NORAD_CAT_ID":49076,"ELEMENT_SET_NO":999,"REV_AT_EPOCH":23820,"BSTAR":0.0010768165,"MEAN_MOTION_DOT":0.000004,"MEAN_MOTION_DDOT":0},{"OBJECT_NAME":"ONEWEB-0287","OBJECT_ID":"2021-075C","EPOCH":"2026-07-14T21:12:01.634400","CLASSIFICATION_TYPE":"U","MEAN_MOTION":13.17648024,"ECCENTRICITY":0.00018738,"INCLINATION":87.9142,"RA_OF_ASC_NODE":0.3554,"ARG_OF_PERICENTER":79.147,"MEAN_ANOMALY":280.9873,"EPHEMERIS_TYPE":0,"NORAD_CAT_ID":49077,"ELEMENT_SET_NO":999,"REV_AT_EPOCH":23727,"BSTAR":0.00015764357,"MEAN_MOTION_DOT":7.4e-7,"MEAN_MOTION_DDOT":0}]}
